[{"OBJECT_NAME":"FENGYUN 1C DEB","OBJECT_ID":"1999-025EFR","EPOCH":"2026-03-26T16:17:25.821312","MEAN_MOTION":14.18444028,"ECCENTRICITY":0.02566536,"INCLINATION":98.6917,"RA_OF_ASC_NODE":240.6457,"ARG_OF_PERICENTER":52.6473,"MEAN_ANOMALY":309.7784,"EPHEMERIS_TYPE":0,"CLASSIFICATION_TYPE":"U","NORAD_CAT_ID":37081,"ELEMENT_SET_NO":999,"REV_AT_EPOCH":60045,"BSTAR":0.003604622,"MEAN_MOTION_DOT":0.00010291,"MEAN_MOTION_DDOT":0},{"OBJECT_NAME":"FENGYUN 1C DEB","OBJECT_ID":"1999-025EFS","EPOCH":"2026-03-28T19:10:46.962624","MEAN_MOTION":13.63785717,"ECCENTRICITY":0.04006156,"INCLINATION":98.8394,"RA_OF_ASC_NODE":280.8376,"ARG_OF_PERICENTER":218.718,"MEAN_ANOMALY":138.4618,"EPHEMERIS_TYPE":0,"CLASSIFICATION_TYPE":"U","NORAD_CAT_ID":37400,"ELEMENT_SET_NO":999,"REV_AT_EPOCH":81639,"BSTAR":0.00057044085,"MEAN_MOTION_DOT":7.4e-6,"MEAN_MOTION_DDOT":0},{"OBJECT_NAME":"FENGYUN 1C DEB","OBJECT_ID":"1999-025EFW","EPOCH":"2026-03-28T12:17:09.043008","MEAN_MOTION":14.32097882,"ECCENTRICITY":0.0043328,"INCLINATION":98.4554,"RA_OF_ASC_NODE":92.6346,"ARG_OF_PERICENTER":208.7889,"MEAN_ANOMALY":303.9987,"EPHEMERIS_TYPE":0,"CLASSIFICATION_TYPE":"U","NORAD_CAT_ID":37404,"ELEMENT_SET_NO":999,"REV_AT_EPOCH":84254,"BSTAR":0.00063025,"MEAN_MOTION_DOT":1.669e-5,"MEAN_MOTION_DDOT":0},{"OBJECT_NAME":"FENGYUN 1C DEB","OBJECT_ID":"1999-025EFY","EPOCH":"2026-03-28T09:17:30.845184","MEAN_MOTION":14.04635971,"ECCENTRICITY":0.0150127,"INCLINATION":98.4369,"RA_OF_ASC_NODE":317.1759,"ARG_OF_PERICENTER":327.6547,"MEAN_ANOMALY":213.9136,"EPHEMERIS_TYPE":0,"CLASSIFICATION_TYPE":"U","NORAD_CAT_ID":37406,"ELEMENT_SET_NO":999,"REV_AT_EPOCH":64715,"BSTAR":0.00090823,"MEAN_MOTION_DOT":1.566e-5,"MEAN_MOTION_DDOT":0},{"OBJECT_NAME":"FENGYUN 1C DEB","OBJECT_ID":"1999-025EGH","EPOCH":"2026-03-29T00:47:11.214816","MEAN_MOTION":13.52158634,"ECCENTRICITY":0.0283173,"INCLINATION":98.9792,"RA_OF_ASC_NODE":190.9455,"ARG_OF_PERICENTER":270.9373,"MEAN_ANOMALY":85.9336,"EPHEMERIS_TYPE":0,"CLASSIFICATION_TYPE":"U","NORAD_CAT_ID":37415,"ELEMENT_SET_NO":999,"REV_AT_EPOCH":63758,"BSTAR":0.00037624,"MEAN_MOTION_DOT":2.78e-6,"MEAN_MOTION_DDOT":0},{"OBJECT_NAME":"FENGYUN 1C DEB","OBJECT_ID":"1999-025EGK","EPOCH":"2026-03-17T05:22:23.568096","MEAN_MOTION":14.07507175,"ECCENTRICITY":0.00792427,"INCLINATION":98.805,"RA_OF_ASC_NODE":71.5694,"ARG_OF_PERICENTER":355.6911,"MEAN_ANOMALY":4.3567,"EPHEMERIS_TYPE":0,"CLASSIFICATION_TYPE":"U","NORAD_CAT_ID":37417,"ELEMENT_SET_NO":999,"REV_AT_EPOCH":69679,"BSTAR":0.00025906698,"MEAN_MOTION_DOT":4.06e-6,"MEAN_MOTION_DDOT":0},{"OBJECT_NAME":"FENGYUN 1C DEB","OBJECT_ID":"1999-025EGL","EPOCH":"2026-03-28T08:20:18.523968","MEAN_MOTION":11.95215851,"ECCENTRICITY":0.10702669,"INCLINATION":98.6152,"RA_OF_ASC_NODE":309.3187,"ARG_OF_PERICENTER":110.9101,"MEAN_ANOMALY":260.9748,"EPHEMERIS_TYPE":0,"CLASSIFICATION_TYPE":"U","NORAD_CAT_ID":37418,"ELEMENT_SET_NO":999,"REV_AT_EPOCH":50746,"BSTAR":0.0028502136,"MEAN_MOTION_DOT":1.145e-5,"MEAN_MOTION_DDOT":0},{"OBJECT_NAME":"FENGYUN 1C DEB","OBJECT_ID":"1999-025EGN","EPOCH":"2026-03-18T16:38:29.373792","MEAN_MOTION":13.99855413,"ECCENTRICITY":0.00746259,"INCLINATION":98.8717,"RA_OF_ASC_NODE":69.6941,"ARG_OF_PERICENTER":10.2946,"MEAN_ANOMALY":349.9726,"EPHEMERIS_TYPE":0,"CLASSIFICATION_TYPE":"U","NORAD_CAT_ID":37420,"ELEMENT_SET_NO":999,"REV_AT_EPOCH":61107,"BSTAR":0.00051193952,"MEAN_MOTION_DOT":7.27e-6,"MEAN_MOTION_DDOT":0},{"OBJECT_NAME":"FENGYUN 1C DEB","OBJECT_ID":"1999-025EGP","EPOCH":"2026-03-13T07:17:04.255008","MEAN_MOTION":13.40640384,"ECCENTRICITY":0.04072891,"INCLINATION":98.8983,"RA_OF_ASC_NODE":21.3195,"ARG_OF_PERICENTER":217.9115,"MEAN_ANOMALY":139.269,"EPHEMERIS_TYPE":0,"CLASSIFICATION_TYPE":"U","NORAD_CAT_ID":37421,"ELEMENT_SET_NO":999,"REV_AT_EPOCH":62159,"BSTAR":0.00024198869,"MEAN_MOTION_DOT":1.78e-6,"MEAN_MOTION_DDOT":0},{"OBJECT_NAME":"FENGYUN 1C DEB","OBJECT_ID":"1999-025EGR","EPOCH":"2026-03-24T09:42:13.311936","MEAN_MOTION":14.07835298,"ECCENTRICITY":0.00479066,"INCLINATION":98.7748,"RA_OF_ASC_NODE":135.835,"ARG_OF_PERICENTER":231.2281,"MEAN_ANOMALY":128.4604,"EPHEMERIS_TYPE":0,"CLASSIFICATION_TYPE":"U","NORAD_CAT_ID":37423,"ELEMENT_SET_NO":999,"REV_AT_EPOCH":65040,"BSTAR":0.00063649092,"MEAN_MOTION_DOT":1.047e-5,"MEAN_MOTION_DDOT":0},{"OBJECT_NAME":"FENGYUN 1C DEB","OBJECT_ID":"1999-025EGS","EPOCH":"2026-03-26T01:49:47.724384","MEAN_MOTION":14.18502587,"ECCENTRICITY":0.02122395,"INCLINATION":97.2018,"RA_OF_ASC_NODE":199.2473,"ARG_OF_PERICENTER":333.6704,"MEAN_ANOMALY":25.381,"EPHEMERIS_TYPE":0,"CLASSIFICATION_TYPE":"U","NORAD_CAT_ID":37424,"ELEMENT_SET_NO":999,"REV_AT_EPOCH":70038,"BSTAR":0.00058858728,"MEAN_MOTION_DOT":1.487e-5,"MEAN_MOTION_DDOT":0},{"OBJECT_NAME":"FENGYUN 1C DEB","OBJECT_ID":"1999-025EGV","EPOCH":"2026-03-29T03:53:16.074240","MEAN_MOTION":15.00180503,"ECCENTRICITY":0.0176348,"INCLINATION":98.6388,"RA_OF_ASC_NODE":246.5035,"ARG_OF_PERICENTER":309.0037,"MEAN_ANOMALY":49.5591,"EPHEMERIS_TYPE":0,"CLASSIFICATION_TYPE":"U","NORAD_CAT_ID":37427,"ELEMENT_SET_NO":999,"REV_AT_EPOCH":61917,"BSTAR":0.00040299,"MEAN_MOTION_DOT":6.919e-5,"MEAN_MOTION_DDOT":0},{"OBJECT_NAME":"FENGYUN 1C DEB","OBJECT_ID":"1999-025EGW","EPOCH":"2026-03-26T08:02:37.612320","MEAN_MOTION":14.35948405,"ECCENTRICITY":0.00553326,"INCLINATION":97.7189,"RA_OF_ASC_NODE":302.1565,"ARG_OF_PERICENTER":144.3737,"MEAN_ANOMALY":216.1164,"EPHEMERIS_TYPE":0,"CLASSIFICATION_TYPE":"U","NORAD_CAT_ID":37428,"ELEMENT_SET_NO":999,"REV_AT_EPOCH":64922,"BSTAR":0.0016506701,"MEAN_MOTION_DOT":4.841e-5,"MEAN_MOTION_DDOT":0},{"OBJECT_NAME":"FENGYUN 1C DEB","OBJECT_ID":"1999-025EGY","EPOCH":"2026-03-28T11:46:13.016352","MEAN_MOTION":14.29982997,"ECCENTRICITY":0.00204047,"INCLINATION":98.7534,"RA_OF_ASC_NODE":167.1724,"ARG_OF_PERICENTER":121.3343,"MEAN_ANOMALY":238.984,"EPHEMERIS_TYPE":0,"CLASSIFICATION_TYPE":"U","NORAD_CAT_ID":37430,"ELEMENT_SET_NO":999,"REV_AT_EPOCH":63212,"BSTAR":0.0016868122,"MEAN_MOTION_DOT":4.317e-5,"MEAN_MOTION_DDOT":0},{"OBJECT_NAME":"FENGYUN 1C DEB","OBJECT_ID":"1999-025EHA","EPOCH":"2026-03-26T06:58:35.578848","MEAN_MOTION":14.54363258,"ECCENTRICITY":0.0179691,"INCLINATION":98.1812,"RA_OF_ASC_NODE":101.2793,"ARG_OF_PERICENTER":328.1119,"MEAN_ANOMALY":30.9299,"EPHEMERIS_TYPE":0,"CLASSIFICATION_TYPE":"U","NORAD_CAT_ID":37432,"ELEMENT_SET_NO":999,"REV_AT_EPOCH":9881,"BSTAR":0.00073496,"MEAN_MOTION_DOT":3.82e-5,"MEAN_MOTION_DDOT":0},{"OBJECT_NAME":"FENGYUN 1C DEB","OBJECT_ID":"1999-025EHD","EPOCH":"2026-03-28T08:50:08.236032","MEAN_MOTION":14.22892937,"ECCENTRICITY":0.00416198,"INCLINATION":98.6379,"RA_OF_ASC_NODE":126.6732,"ARG_OF_PERICENTER":69.583,"MEAN_ANOMALY":290.9811,"EPHEMERIS_TYPE":0,"CLASSIFICATION_TYPE":"U","NORAD_CAT_ID":37435,"ELEMENT_SET_NO":999,"REV_AT_EPOCH":90441,"BSTAR":0.00095557001,"MEAN_MOTION_DOT":2.124e-5,"MEAN_MOTION_DDOT":0}]
