FENGYUN 1C DEB          
1 37081U 99025EFR 26085.67877108  .00010291  00000+0  36046-2 0  9992
2 37081  98.6917 240.6457 0256653  52.6473 309.7784 14.18444028600452
FENGYUN 1C DEB          
1 37400U 99025EFS 26087.79915466  .00000740  00000+0  57044-3 0  9992
2 37400  98.8394 280.8376 0400615 218.7180 138.4618 13.63785717816390
FENGYUN 1C DEB          
1 37404U 99025EFW 26087.51191022  .00001669  00000+0  63025-3 0  9997
2 37404  98.4554  92.6346 0043328 208.7889 303.9987 14.32097882842543
FENGYUN 1C DEB          
1 37406U 99025EFY 26087.38716256  .00001566  00000+0  90823-3 0  9998
2 37406  98.4369 317.1759 0150127 327.6547 213.9136 14.04635971647152
FENGYUN 1C DEB          
1 37415U 99025EGH 26088.03276869  .00000278  00000+0  37624-3 0  9991
2 37415  98.9792 190.9455 0283173 270.9373  85.9336 13.52158634637585
FENGYUN 1C DEB          
1 37417U 99025EGK 26076.22388389  .00000406  00000+0  25907-3 0  9996
2 37417  98.8050  71.5694 0079242 355.6911   4.3567 14.07507175696799
FENGYUN 1C DEB          
1 37418U 99025EGL 26087.34743662  .00001145  00000+0  28502-2 0  9995
2 37418  98.6152 309.3187 1070266 110.9101 260.9748 11.95215851507468
FENGYUN 1C DEB          
1 37420U 99025EGN 26077.69339553  .00000727  00000+0  51194-3 0  9994
2 37420  98.8717  69.6941 0074625  10.2946 349.9726 13.99855413611072
FENGYUN 1C DEB          
1 37421U 99025EGP 26072.30352147  .00000178  00000+0  24199-3 0  9997
2 37421  98.8983  21.3195 0407289 217.9115 139.2690 13.40640384621597
FENGYUN 1C DEB          
1 37423U 99025EGR 26083.40432074  .00001047  00000+0  63649-3 0  9999
2 37423  98.7748 135.8350 0047906 231.2281 128.4604 14.07835298650401
FENGYUN 1C DEB          
1 37424U 99025EGS 26085.07624681  .00001487  00000+0  58859-3 0  9997
2 37424  97.2018 199.2473 0212239 333.6704  25.3810 14.18502587700387
FENGYUN 1C DEB          
1 37427U 99025EGV 26088.16199160  .00006919  00000+0  40299-3 0  9996
2 37427  98.6388 246.5035 0176348 309.0037  49.5591 15.00180503619173
FENGYUN 1C DEB          
1 37428U 99025EGW 26085.33515755  .00004841  00000+0  16507-2 0  9991
2 37428  97.7189 302.1565 0055332 144.3737 216.1164 14.35948405649223
FENGYUN 1C DEB          
1 37430U 99025EGY 26087.49042843  .00004317  00000+0  16868-2 0  9994
2 37430  98.7534 167.1724 0020404 121.3343 238.9840 14.29982997632128
FENGYUN 1C DEB          
1 37432U 99025EHA 26085.29068957  .00003820  00000+0  73496-3 0  9995
2 37432  98.1812 101.2793 0179691 328.1119  30.9299 14.54363258 98810
FENGYUN 1C DEB          
1 37435U 99025EHD 26087.36815088  .00002124  00000+0  95557-3 0  9991
2 37435  98.6379 126.6732 0041619  69.5830 290.9811 14.22892937904410
